start=new Date('2022-05-06T00:00:00.000Z').valueOf();
sats=[{"EPHEMERIS_TYPE":"0","APOAPSIS":"548.310","TLE_LINE1":"1 48364U 21038M   22125.44498777  .00000133  00000-0  27810-4 0  9990","ELEMENT_SET_NO":"999","GP_ID":"202768537","SEMIMAJOR_AXIS":"6925.365","BSTAR":"0.00002781000000","MEAN_MOTION":"15.06394702","CENTER_NAME":"EARTH","MEAN_ELEMENT_THEORY":"SGP4","MEAN_ANOMALY":"306.7405","RA_OF_ASC_NODE":"180.5211","REV_AT_EPOCH":"5544","SITE":"AFETR","ECCENTRICITY":"0.00015600","NORAD_CAT_ID":"48364","EPOCH":"2022-05-05T10:40:46.943328","MEAN_MOTION_DDOT":"0.0000000000000","TIME_SYSTEM":"UTC","CLASSIFICATION_TYPE":"U","TLE_LINE2":"2 48364  53.0537 180.5211 0001560  53.3728 306.7405 15.06394702 55448","FILE":"3430353","LAUNCH_DATE":"2021-05-04","MEAN_MOTION_DOT":"0.00000133","OBJECT_ID":"2021-038M","RCS_SIZE":"LARGE","PERIAPSIS":"546.149","COUNTRY_CODE":"US","ARG_OF_PERICENTER":"53.3728","INCLINATION":"53.0537","REF_FRAME":"TEME","OBJECT_NAME":"STARLINK-2611","DECAY_DATE":null,"PERIOD":"95.592","OBJECT_TYPE":"PAYLOAD"},{"RA_OF_ASC_NODE":"179.7324","SITE":"AFETR","REV_AT_EPOCH":"5547","MEAN_ANOMALY":"305.9126","EPOCH":"2022-05-05T14:56:54.681504","MEAN_MOTION_DDOT":"0.0000000000000","NORAD_CAT_ID":"48365","ECCENTRICITY":"0.00016850","TLE_LINE2":"2 48365  53.0532 179.7324 0001685  54.2019 305.9126 15.06406992 55479","CLASSIFICATION_TYPE":"U","TIME_SYSTEM":"UTC","APOAPSIS":"548.359","EPHEMERIS_TYPE":"0","ELEMENT_SET_NO":"999","TLE_LINE1":"1 48365U 21038N   22125.62285511  .00001485  00000-0  11853-3 0  9991","SEMIMAJOR_AXIS":"6925.327","GP_ID":"202803996","MEAN_MOTION":"15.06406992","BSTAR":"0.00011853000000","MEAN_ELEMENT_THEORY":"SGP4","CENTER_NAME":"EARTH","ARG_OF_PERICENTER":"54.2019","PERIAPSIS":"546.025","RCS_SIZE":"LARGE","COUNTRY_CODE":"US","OBJECT_NAME":"STARLINK-2608","INCLINATION":"53.0532","REF_FRAME":"TEME","DECAY_DATE":null,"PERIOD":"95.592","OBJECT_TYPE":"PAYLOAD","FILE":"3430750","LAUNCH_DATE":"2021-05-04","MEAN_MOTION_DOT":"0.00001485","OBJECT_ID":"2021-038N"},{"OBJECT_ID":"2021-038P","LAUNCH_DATE":"2021-05-04","FILE":"3430750","MEAN_MOTION_DOT":"-0.00001961","DECAY_DATE":null,"PERIOD":"95.592","OBJECT_TYPE":"PAYLOAD","COUNTRY_CODE":"US","RCS_SIZE":"LARGE","PERIAPSIS":"546.106","ARG_OF_PERICENTER":"57.4586","REF_FRAME":"TEME","INCLINATION":"53.0548","OBJECT_NAME":"STARLINK-2631","BSTAR":"-0.00011280000000","MEAN_MOTION":"15.06403532","CENTER_NAME":"EARTH","MEAN_ELEMENT_THEORY":"SGP4","ELEMENT_SET_NO":"999","TLE_LINE1":"1 48366U 21038P   22125.61042210 -.00001961  00000-0 -11280-3 0  9993","APOAPSIS":"548.299","EPHEMERIS_TYPE":"0","GP_ID":"202803739","SEMIMAJOR_AXIS":"6925.338","TIME_SYSTEM":"UTC","CLASSIFICATION_TYPE":"U","TLE_LINE2":"2 48366  53.0548 174.7768 0001583  57.4586 302.6556 15.06403532 55530","MEAN_ANOMALY":"302.6556","REV_AT_EPOCH":"5553","SITE":"AFETR","RA_OF_ASC_NODE":"174.7768","ECCENTRICITY":"0.00015830","NORAD_CAT_ID":"48366","MEAN_MOTION_DDOT":"0.0000000000000","EPOCH":"2022-05-05T14:39:00.469440"},{"TIME_SYSTEM":"UTC","TLE_LINE2":"2 48367  53.0537 174.8045 0001750  53.3469 306.7680 15.06408639 55535","CLASSIFICATION_TYPE":"U","MEAN_ANOMALY":"306.7680","RA_OF_ASC_NODE":"174.8045","REV_AT_EPOCH":"5553","SITE":"AFETR","ECCENTRICITY":"0.00017500","NORAD_CAT_ID":"48367","EPOCH":"2022-05-05T14:33:41.443488","MEAN_MOTION_DDOT":"0.0000000000000","BSTAR":"-0.00005835800000","MEAN_MOTION":"15.06408639","CENTER_NAME":"EARTH","MEAN_ELEMENT_THEORY":"SGP4","APOAPSIS":"548.399","EPHEMERIS_TYPE":"0","TLE_LINE1":"1 48367U 21038Q   22125.60672967 -.00001151  00000-0 -58358-4 0  9990","ELEMENT_SET_NO":"999","GP_ID":"202802497","SEMIMAJOR_AXIS":"6925.322","DECAY_DATE":null,"PERIOD":"95.592","OBJECT_TYPE":"PAYLOAD","PERIAPSIS":"545.975","RCS_SIZE":"LARGE","COUNTRY_CODE":"US","ARG_OF_PERICENTER":"53.3469","INCLINATION":"53.0537","REF_FRAME":"TEME","OBJECT_NAME":"STARLINK-2643","OBJECT_ID":"2021-038Q","LAUNCH_DATE":"2021-05-04","FILE":"3430750","MEAN_MOTION_DOT":"-0.00001151"},{"OBJECT_NAME":"STARLINK-2623","REF_FRAME":"TEME","INCLINATION":"53.0551","ARG_OF_PERICENTER":"44.5956","COUNTRY_CODE":"US","RCS_SIZE":"LARGE","PERIAPSIS":"545.854","PERIOD":"95.592","OBJECT_TYPE":"PAYLOAD","DECAY_DATE":null,"FILE":"3430750","LAUNCH_DATE":"2021-05-04","MEAN_MOTION_DOT":"0.00000789","OBJECT_ID":"2021-038R","MEAN_MOTION_DDOT":"0.0000000000000","EPOCH":"2022-05-05T19:45:29.822976","ECCENTRICITY":"0.00019400","NORAD_CAT_ID":"48368","REV_AT_EPOCH":"5557","SITE":"AFETR","RA_OF_ASC_NODE":"173.8149","MEAN_ANOMALY":"315.5188","CLASSIFICATION_TYPE":"U","TLE_LINE2":"2 48368  53.0551 173.8149 0001940  44.5956 315.5188 15.06405111 55577","TIME_SYSTEM":"UTC","SEMIMAJOR_AXIS":"6925.333","GP_ID":"202803246","TLE_LINE1":"1 48368U 21038R   22125.82326184  .00000789  00000-0  71881-4 0  9992","ELEMENT_SET_NO":"999","EPHEMERIS_TYPE":"0","APOAPSIS":"548.541","MEAN_ELEMENT_THEORY":"SGP4","CENTER_NAME":"EARTH","MEAN_MOTION":"15.06405111","BSTAR":"0.00007188100000"},{"REF_FRAME":"TEME","INCLINATION":"53.0564","OBJECT_NAME":"STARLINK-2641","COUNTRY_CODE":"US","RCS_SIZE":"LARGE","PERIAPSIS":"546.164","ARG_OF_PERICENTER":"52.1159","PERIOD":"95.591","OBJECT_TYPE":"PAYLOAD","DECAY_DATE":null,"LAUNCH_DATE":"2021-05-04","FILE":"3430750","MEAN_MOTION_DOT":"-0.00004593","OBJECT_ID":"2021-038S","NORAD_CAT_ID":"48369","ECCENTRICITY":"0.00014330","MEAN_MOTION_DDOT":"0.0000000000000","EPOCH":"2022-05-05T20:50:32.560224","MEAN_ANOMALY":"307.9959","SITE":"AFETR","REV_AT_EPOCH":"5557","RA_OF_ASC_NODE":"173.6191","TIME_SYSTEM":"UTC","TLE_LINE2":"2 48369  53.0564 173.6191 0001433  52.1159 307.9959 15.06418683 55573","CLASSIFICATION_TYPE":"U","SEMIMAJOR_AXIS":"6925.291","GP_ID":"202803499","ELEMENT_SET_NO":"999","TLE_LINE1":"1 48369U 21038S   22125.86843241 -.00004593  00000-0 -28948-3 0  9999","APOAPSIS":"548.149","EPHEMERIS_TYPE":"0","CENTER_NAME":"EARTH","MEAN_ELEMENT_THEORY":"SGP4","BSTAR":"-0.00028948000000","MEAN_MOTION":"15.06418683"},{"EPOCH":"2022-05-05T20:45:13.995648","MEAN_MOTION_DDOT":"0.0000000000000","NORAD_CAT_ID":"48370","ECCENTRICITY":"0.00019000","RA_OF_ASC_NODE":"173.6372","SITE":"AFETR","REV_AT_EPOCH":"5557","MEAN_ANOMALY":"309.2082","TLE_LINE2":"2 48370  53.0556 173.6372 0001900  50.9076 309.2082 15.06431034 55577","CLASSIFICATION_TYPE":"U","TIME_SYSTEM":"UTC","GP_ID":"202804238","SEMIMAJOR_AXIS":"6925.253","APOAPSIS":"548.434","EPHEMERIS_TYPE":"0","TLE_LINE1":"1 48370U 21038T   22125.86474532 -.00004569  00000-0 -28774-3 0  9994","ELEMENT_SET_NO":"999","MEAN_ELEMENT_THEORY":"SGP4","CENTER_NAME":"EARTH","MEAN_MOTION":"15.06431034","BSTAR":"-0.00028774000000","OBJECT_NAME":"STARLINK-2621","INCLINATION":"53.0556","REF_FRAME":"TEME","ARG_OF_PERICENTER":"50.9076","RCS_SIZE":"LARGE","PERIAPSIS":"545.803","COUNTRY_CODE":"US","OBJECT_TYPE":"PAYLOAD","PERIOD":"95.590","DECAY_DATE":null,"FILE":"3430750","LAUNCH_DATE":"2021-05-04","MEAN_MOTION_DOT":"-0.00004569","OBJECT_ID":"2021-038T"},{"OBJECT_TYPE":"PAYLOAD","PERIOD":"95.592","DECAY_DATE":null,"OBJECT_NAME":"STARLINK-2589","INCLINATION":"53.0525","REF_FRAME":"TEME","ARG_OF_PERICENTER":"51.6891","PERIAPSIS":"545.898","RCS_SIZE":"LARGE","COUNTRY_CODE":"US","OBJECT_ID":"2021-038U","FILE":"3430750","MEAN_MOTION_DOT":"-0.00000382","LAUNCH_DATE":"2021-05-04","CLASSIFICATION_TYPE":"U","TLE_LINE2":"2 48371  53.0525 173.6634 0001877  51.6891 308.4266 15.06405024 55576","TIME_SYSTEM":"UTC","EPOCH":"2022-05-05T20:39:55.882080","MEAN_MOTION_DDOT":"0.0000000000000","ECCENTRICITY":"0.00018770","NORAD_CAT_ID":"48371","RA_OF_ASC_NODE":"173.6634","REV_AT_EPOCH":"5557","SITE":"AFETR","MEAN_ANOMALY":"308.4266","MEAN_ELEMENT_THEORY":"SGP4","CENTER_NAME":"EARTH","MEAN_MOTION":"15.06405024","BSTAR":"-0.00000670560000","SEMIMAJOR_AXIS":"6925.333","GP_ID":"202802996","APOAPSIS":"548.498","EPHEMERIS_TYPE":"0","TLE_LINE1":"1 48371U 21038U   22125.86106345 -.00000382  00000-0 -67056-5 0  9996","ELEMENT_SET_NO":"999"},{"CENTER_NAME":"EARTH","MEAN_ELEMENT_THEORY":"SGP4","BSTAR":"0.00014775000000","MEAN_MOTION":"15.06411153","GP_ID":"202802748","SEMIMAJOR_AXIS":"6925.314","TLE_LINE1":"1 48372U 21038V   22125.85737660  .00001920  00000-0  14775-3 0  9991","ELEMENT_SET_NO":"999","EPHEMERIS_TYPE":"0","APOAPSIS":"548.553","TIME_SYSTEM":"UTC","TLE_LINE2":"2 48372  53.0530 173.6779 0001983  39.0394 321.0738 15.06411153 55574","CLASSIFICATION_TYPE":"U","NORAD_CAT_ID":"48372","ECCENTRICITY":"0.00019830","MEAN_MOTION_DDOT":"0.0000000000000","EPOCH":"2022-05-05T20:34:37.338240","MEAN_ANOMALY":"321.0738","SITE":"AFETR","REV_AT_EPOCH":"5557","RA_OF_ASC_NODE":"173.6779","OBJECT_ID":"2021-038V","MEAN_MOTION_DOT":"0.00001920","FILE":"3430750","LAUNCH_DATE":"2021-05-04","OBJECT_TYPE":"PAYLOAD","PERIOD":"95.591","DECAY_DATE":null,"REF_FRAME":"TEME","INCLINATION":"53.0530","OBJECT_NAME":"STARLINK-2572","COUNTRY_CODE":"US","PERIAPSIS":"545.806","RCS_SIZE":"LARGE","ARG_OF_PERICENTER":"39.0394"},{"TLE_LINE2":"2 48373  53.0516 173.6929 0001676  60.7759 299.3397 15.06407679 56163","CLASSIFICATION_TYPE":"U","TIME_SYSTEM":"UTC","EPOCH":"2022-05-05T20:29:18.775392","MEAN_MOTION_DDOT":"0.0000000000000","NORAD_CAT_ID":"48373","ECCENTRICITY":"0.00016760","RA_OF_ASC_NODE":"173.6929","SITE":"AFETR","REV_AT_EPOCH":"5616","MEAN_ANOMALY":"299.3397","MEAN_ELEMENT_THEORY":"SGP4","CENTER_NAME":"EARTH","MEAN_MOTION":"15.06407679","BSTAR":"0.00031454000000","SEMIMAJOR_AXIS":"6925.325","GP_ID":"202776289","EPHEMERIS_TYPE":"0","APOAPSIS":"548.351","TLE_LINE1":"1 48373U 21038W   22125.85368953  .00004408  00000-0  31454-3 0  9994","ELEMENT_SET_NO":"999","PERIOD":"95.592","OBJECT_TYPE":"PAYLOAD","DECAY_DATE":null,"OBJECT_NAME":"STARLINK-2609","INCLINATION":"53.0516","REF_FRAME":"TEME","ARG_OF_PERICENTER":"60.7759","RCS_SIZE":"LARGE","PERIAPSIS":"546.029","COUNTRY_CODE":"US","OBJECT_ID":"2021-038W","FILE":"3430531","MEAN_MOTION_DOT":"0.00004408","LAUNCH_DATE":"2021-05-04"}];
